{
  "links" : {
    "next" : "https://api.nasa.gov/neo/rest/v1/feed?start_date=2010-02-23&end_date=2010-02-23&detailed=true&api_key=t0TVs3DtDT2H8Oy2Zy8m2eVrNsAVKAexjcZXUckd",
    "prev" : "https://api.nasa.gov/neo/rest/v1/feed?start_date=2010-02-21&end_date=2010-02-21&detailed=true&api_key=t0TVs3DtDT2H8Oy2Zy8m2eVrNsAVKAexjcZXUckd",
    "self" : "https://api.nasa.gov/neo/rest/v1/feed?start_date=2010-02-22&end_date=2010-02-22&detailed=true&api_key=t0TVs3DtDT2H8Oy2Zy8m2eVrNsAVKAexjcZXUckd"
  },
  "element_count" : 10,
  "near_earth_objects" : {
    "2010-02-22" : [ {
      "links" : {
        "self" : "https://api.nasa.gov/neo/rest/v1/neo/3467228?api_key=t0TVs3DtDT2H8Oy2Zy8m2eVrNsAVKAexjcZXUckd"
      },
      "neo_reference_id" : "3467228",
      "name" : "(2009 SX1)",
      "nasa_jpl_url" : "http://ssd.jpl.nasa.gov/sbdb.cgi?sstr=3467228",
      "absolute_magnitude_h" : 18.8,
      "estimated_diameter" : {
        "kilometers" : {
          "estimated_diameter_min" : 0.4619074603,
          "estimated_diameter_max" : 1.0328564805
        },
        "meters" : {
          "estimated_diameter_min" : 461.9074602816,
          "estimated_diameter_max" : 1032.8564805039
        },
        "miles" : {
          "estimated_diameter_min" : 0.2870159005,
          "estimated_diameter_max" : 0.6417870641
        },
        "feet" : {
          "estimated_diameter_min" : 1515.4444719902,
          "estimated_diameter_max" : 3388.6368554964
        }
      },
      "is_potentially_hazardous_asteroid" : false,
      "close_approach_data" : [ {
        "close_approach_date" : "2010-02-22",
        "epoch_date_close_approach" : 1266825600000,
        "relative_velocity" : {
          "kilometers_per_second" : "4.6379800189",
          "kilometers_per_hour" : "16696.7280678617",
          "miles_per_hour" : "10374.6975041666"
        },
        "miss_distance" : {
          "astronomical" : "0.4931915976",
          "lunar" : "191.8515319824",
          "kilometers" : "73780416",
          "miles" : "45845024"
        },
        "orbiting_body" : "Earth"
      } ],
      "orbital_data" : {
        "orbit_id" : "30",
        "orbit_determination_date" : "2017-06-02 06:17:00",
        "orbit_uncertainty" : "0",
        "minimum_orbit_intersection" : ".0739601",
        "jupiter_tisserand_invariant" : "4.039",
        "epoch_osculation" : "2458000.5",
        "eccentricity" : ".4473685937947578",
        "semi_major_axis" : "1.722396201243759",
        "inclination" : "8.284991970354636",
        "ascending_node_longitude" : "335.1813753895431",
        "orbital_period" : "825.653859491251",
        "perihelion_distance" : ".9518502347359061",
        "perihelion_argument" : "115.1619825067843",
        "aphelion_distance" : "2.492942167751613",
        "perihelion_time" : "2457645.670689598923",
        "mean_anomaly" : "154.7119901105981",
        "mean_motion" : ".436018067210179",
        "equinox" : "J2000"
      }
    }, {
      "links" : {
        "self" : "https://api.nasa.gov/neo/rest/v1/neo/3511913?api_key=t0TVs3DtDT2H8Oy2Zy8m2eVrNsAVKAexjcZXUckd"
      },
      "neo_reference_id" : "3511913",
      "name" : "(2010 EA46)",
      "nasa_jpl_url" : "http://ssd.jpl.nasa.gov/sbdb.cgi?sstr=3511913",
      "absolute_magnitude_h" : 23.7,
      "estimated_diameter" : {
        "kilometers" : {
          "estimated_diameter_min" : 0.0483676488,
          "estimated_diameter_max" : 0.1081533507
        },
        "meters" : {
          "estimated_diameter_min" : 48.3676488219,
          "estimated_diameter_max" : 108.1533506775
        },
        "miles" : {
          "estimated_diameter_min" : 0.0300542543,
          "estimated_diameter_max" : 0.0672033557
        },
        "feet" : {
          "estimated_diameter_min" : 158.6865169607,
          "estimated_diameter_max" : 354.8338390368
        }
      },
      "is_potentially_hazardous_asteroid" : false,
      "close_approach_data" : [ {
        "close_approach_date" : "2010-02-22",
        "epoch_date_close_approach" : 1266825600000,
        "relative_velocity" : {
          "kilometers_per_second" : "8.778407738",
          "kilometers_per_hour" : "31602.2678569518",
          "miles_per_hour" : "19636.4202692265"
        },
        "miss_distance" : {
          "astronomical" : "0.0342183636",
          "lunar" : "13.3109436035",
          "kilometers" : "5118994.5",
          "miles" : "3180795.5"
        },
        "orbiting_body" : "Earth"
      } ],
      "orbital_data" : {
        "orbit_id" : "13",
        "orbit_determination_date" : "2017-04-06 08:58:09",
        "orbit_uncertainty" : "7",
        "minimum_orbit_intersection" : ".0313945",
        "jupiter_tisserand_invariant" : "2.963",
        "epoch_osculation" : "2458000.5",
        "eccentricity" : ".6426027902548408",
        "semi_major_axis" : "2.829977575629983",
        "inclination" : "5.858230130613317",
        "ascending_node_longitude" : "157.0203468319937",
        "orbital_period" : "1738.893236352489",
        "perihelion_distance" : "1.011426089171526",
        "perihelion_argument" : "344.5118533386151",
        "aphelion_distance" : "4.648529062088439",
        "perihelion_time" : "2458717.331682777111",
        "mean_anomaly" : "211.5956009231099",
        "mean_motion" : ".2070282363942813",
        "equinox" : "J2000"
      }
    }, {
      "links" : {
        "self" : "https://api.nasa.gov/neo/rest/v1/neo/3714452?api_key=t0TVs3DtDT2H8Oy2Zy8m2eVrNsAVKAexjcZXUckd"
      },
      "neo_reference_id" : "3714452",
      "name" : "(2015 FQ117)",
      "nasa_jpl_url" : "http://ssd.jpl.nasa.gov/sbdb.cgi?sstr=3714452",
      "absolute_magnitude_h" : 20.6,
      "estimated_diameter" : {
        "kilometers" : {
          "estimated_diameter_min" : 0.2016299194,
          "estimated_diameter_max" : 0.4508582062
        },
        "meters" : {
          "estimated_diameter_min" : 201.6299194428,
          "estimated_diameter_max" : 450.8582061718
        },
        "miles" : {
          "estimated_diameter_min" : 0.1252869847,
          "estimated_diameter_max" : 0.2801502144
        },
        "feet" : {
          "estimated_diameter_min" : 661.5155049046,
          "estimated_diameter_max" : 1479.1936371367
        }
      },
      "is_potentially_hazardous_asteroid" : true,
      "close_approach_data" : [ {
        "close_approach_date" : "2010-02-22",
        "epoch_date_close_approach" : 1266825600000,
        "relative_velocity" : {
          "kilometers_per_second" : "34.5699768835",
          "kilometers_per_hour" : "124451.9167804564",
          "miles_per_hour" : "77329.5812906119"
        },
        "miss_distance" : {
          "astronomical" : "0.4815373178",
          "lunar" : "187.3180084229",
          "kilometers" : "72036960",
          "miles" : "44761688"
        },
        "orbiting_body" : "Earth"
      } ],
      "orbital_data" : {
        "orbit_id" : "17",
        "orbit_determination_date" : "2017-04-06 08:34:48",
        "orbit_uncertainty" : "3",
        "minimum_orbit_intersection" : ".0281473",
        "jupiter_tisserand_invariant" : "6.681",
        "epoch_osculation" : "2458000.5",
        "eccentricity" : ".6205252129223062",
        "semi_major_axis" : ".8607400158750946",
        "inclination" : "4.559941010630234",
        "ascending_node_longitude" : "293.9197687415524",
        "orbital_period" : "291.6798430372066",
        "perihelion_distance" : ".3266291342534523",
        "perihelion_argument" : "63.07430147068387",
        "aphelion_distance" : "1.394850897496737",
        "perihelion_time" : "2458122.996557712335",
        "mean_anomaly" : "208.8110788964757",
        "mean_motion" : "1.234229956555752",
        "equinox" : "J2000"
      }
    } ]
  }
}